[{"OBJECT_NAME":"KUIPER-00208","OBJECT_ID":"2026-030M","EPOCH":"2026-03-09T16:08:08.024640","MEAN_MOTION":15.32208734,"ECCENTRICITY":0.00155248,"INCLINATION":51.8846,"RA_OF_ASC_NODE":219.6993,"ARG_OF_PERICENTER":57.3146,"MEAN_ANOMALY":302.9333,"EPHEMERIS_TYPE":0,"CLASSIFICATION_TYPE":"U","NORAD_CAT_ID":67775,"ELEMENT_SET_NO":999,"REV_AT_EPOCH":508,"BSTAR":0.0013882708,"MEAN_MOTION_DOT":0.00043852,"MEAN_MOTION_DDOT":0},{"OBJECT_NAME":"FREGAT DEB","OBJECT_ID":"2011-037BA","EPOCH":"2026-03-07T21:51:11.179584","MEAN_MOTION":11.85982955,"ECCENTRICITY":0.16068404,"INCLINATION":51.4778,"RA_OF_ASC_NODE":309.8732,"ARG_OF_PERICENTER":204.2893,"MEAN_ANOMALY":147.3247,"EPHEMERIS_TYPE":0,"CLASSIFICATION_TYPE":"U","NORAD_CAT_ID":45816,"ELEMENT_SET_NO":999,"REV_AT_EPOCH":24023,"BSTAR":0.0038548869,"MEAN_MOTION_DOT":0.00018183,"MEAN_MOTION_DDOT":0}]
